{
  "type": "FeatureCollection",
  "features": [
    {
      "type": "Feature",
      "properties": {
        "norad_id": 65731,
        "name": "1998-067XK",
        "group": "stations",
        "lat": 33.57140539806791,
        "lon": -151.10212960645285,
        "alt_km": 361.2793282098355,
        "timestamp": "2025-12-27T19:21:57.578304+00:00",
        "meta_object_name": "1998-067XK",
        "meta_object_id": "1998-067XK",
        "meta_epoch": "2025-12-27T11:08:53.834208",
        "meta_mean_motion": 15.68658441,
        "meta_eccentricity": 0.0005069,
        "meta_inclination": 51.6288,
        "meta_ra_of_asc_node": 62.37,
        "meta_arg_of_pericenter": 336.6665,
        "meta_mean_anomaly": 23.4101,
        "meta_ephemeris_type": 0,
        "meta_classification_type": "U",
        "meta_norad_cat_id": 65731,
        "meta_element_set_no": 999,
        "meta_rev_at_epoch": 1545,
        "meta_bstar": 0.00095755,
        "meta_mean_motion_dot": 0.00112248,
        "meta_mean_motion_ddot": 0,
        "tle_line1": "1 65731U 98067XK  25361.46451197  .00112248  00000+0  95755-3 0  9997",
        "tle_line2": "2 65731  51.6288  62.3700 0005069 336.6665  23.4101 15.68658441 15451"
      },
      "geometry": {
        "type": "Point",
        "coordinates": [
          -151.10212960645285,
          33.57140539806791
        ]
      }
    },
    {
      "type": "Feature",
      "properties": {
        "norad_id": 65732,
        "name": "RSP-03",
        "group": "stations",
        "lat": -47.27593810432923,
        "lon": 0.4388655268658285,
        "alt_km": 353.3752077595227,
        "timestamp": "2025-12-27T19:21:57.578315+00:00",
        "meta_object_name": "RSP-03",
        "meta_object_id": "1998-067XL",
        "meta_epoch": "2025-12-27T10:30:36.886752",
        "meta_mean_motion": 15.72555826,
        "meta_eccentricity": 0.0006137,
        "meta_inclination": 51.6262,
        "meta_ra_of_asc_node": 61.4259,
        "meta_arg_of_pericenter": 344.1369,
        "meta_mean_anomaly": 15.9436,
        "meta_ephemeris_type": 0,
        "meta_classification_type": "U",
        "meta_norad_cat_id": 65732,
        "meta_element_set_no": 999,
        "meta_rev_at_epoch": 1547,
        "meta_bstar": 0.0011231,
        "meta_mean_motion_dot": 0.00156013,
        "meta_mean_motion_ddot": 0,
        "tle_line1": "1 65732U 98067XL  25361.43792693  .00156013  00000+0  11231-2 0  9998",
        "tle_line2": "2 65732  51.6262  61.4259 0006137 344.1369  15.9436 15.72555826 15472"
      },
      "geometry": {
        "type": "Point",
        "coordinates": [
          0.4388655268658285,
          -47.27593810432923
        ]
      }
    },
    {
      "type": "Feature",
      "properties": {
        "norad_id": 65733,
        "name": "GHS-01",
        "group": "stations",
        "lat": -51.29934795950732,
        "lon": -41.1606593154007,
        "alt_km": 330.43988134508345,
        "timestamp": "2025-12-27T19:21:57.578324+00:00",
        "meta_object_name": "GHS-01",
        "meta_object_id": "1998-067XM",
        "meta_epoch": "2025-12-27T12:11:15.233280",
        "meta_mean_motion": 15.81984355,
        "meta_eccentricity": 0.000952,
        "meta_inclination": 51.6274,
        "meta_ra_of_asc_node": 58.8829,
        "meta_arg_of_pericenter": 8.1386,
        "meta_mean_anomaly": 351.9769,
        "meta_ephemeris_type": 0,
        "meta_classification_type": "U",
        "meta_norad_cat_id": 65733,
        "meta_element_set_no": 999,
        "meta_rev_at_epoch": 1551,
        "meta_bstar": 0.0015063,
        "meta_mean_motion_dot": 0.00325699,
        "meta_mean_motion_ddot": 0,
        "tle_line1": "1 65733U 98067XM  25361.50781520  .00325699  00000+0  15063-2 0  9999",
        "tle_line2": "2 65733  51.6274  58.8829 0009520   8.1386 351.9769 15.81984355 15514"
      },
      "geometry": {
        "type": "Point",
        "coordinates": [
          -41.1606593154007,
          -51.29934795950732
        ]
      }
    },
    {
      "type": "Feature",
      "properties": {
        "norad_id": 65941,
        "name": "YOTSUBA-KULOVER",
        "group": "stations",
        "lat": -47.76233062942742,
        "lon": -55.09470877995703,
        "alt_km": 388.70711874347853,
        "timestamp": "2025-12-27T19:21:57.578335+00:00",
        "meta_object_name": "YOTSUBA-KULOVER",
        "meta_object_id": "1998-067XN",
        "meta_epoch": "2025-12-27T06:00:30.216672",
        "meta_mean_motion": 15.61434985,
        "meta_eccentricity": 0.00027547,
        "meta_inclination": 51.629,
        "meta_ra_of_asc_node": 66.9415,
        "meta_arg_of_pericenter": 9.199,
        "meta_mean_anomaly": 350.9054,
        "meta_ephemeris_type": 0,
        "meta_classification_type": "U",
        "meta_norad_cat_id": 65941,
        "meta_element_set_no": 999,
        "meta_rev_at_epoch": 1212,
        "meta_bstar": 0.00083629815,
        "meta_mean_motion_dot": 0.00072986,
        "meta_mean_motion_ddot": 0,
        "tle_line1": "1 65941U 98067XN  25361.25034973  .00072986  00000+0  83630-3 0  9999",
        "tle_line2": "2 65941  51.6290  66.9415 0002754   9.1990 350.9054 15.61434985 12125"
      },
      "geometry": {
        "type": "Point",
        "coordinates": [
          -55.09470877995703,
          -47.76233062942742
        ]
      }
    },
    {
      "type": "Feature",
      "properties": {
        "norad_id": 65942,
        "name": "BOTAN",
        "group": "stations",
        "lat": 49.64911991862483,
        "lon": 131.8495868544348,
        "alt_km": 362.77794968784656,
        "timestamp": "2025-12-27T19:21:57.578344+00:00",
        "meta_object_name": "BOTAN",
        "meta_object_id": "1998-067XP",
        "meta_epoch": "2025-12-27T05:15:28.443744",
        "meta_mean_motion": 15.66006349,
        "meta_eccentricity": 0.00036864,
        "meta_inclination": 51.6275,
        "meta_ra_of_asc_node": 65.9806,
        "meta_arg_of_pericenter": 351.9823,
        "meta_mean_anomaly": 8.1114,
        "meta_ephemeris_type": 0,
        "meta_classification_type": "U",
        "meta_norad_cat_id": 65942,
        "meta_element_set_no": 999,
        "meta_rev_at_epoch": 1213,
        "meta_bstar": 0.0011595855,
        "meta_mean_motion_dot": 0.00122237,
        "meta_mean_motion_ddot": 0,
        "tle_line1": "1 65942U 98067XP  25361.21907921  .00122237  00000+0  11596-2 0  9994",
        "tle_line2": "2 65942  51.6275  65.9806 0003686 351.9823   8.1114 15.66006349 12134"
      },
      "geometry": {
        "type": "Point",
        "coordinates": [
          131.8495868544348,
          49.64911991862483
        ]
      }
    },
    {
      "type": "Feature",
      "properties": {
        "norad_id": 65943,
        "name": "E-KAGAKU-1",
        "group": "stations",
        "lat": -47.596410470428474,
        "lon": -55.68376408208648,
        "alt_km": 387.7361857807691,
        "timestamp": "2025-12-27T19:21:57.578353+00:00",
        "meta_object_name": "E-KAGAKU-1",
        "meta_object_id": "1998-067XQ",
        "meta_epoch": "2025-12-26T11:34:38.215200",
        "meta_mean_motion": 15.61326456,
        "meta_eccentricity": 0.00014737,
        "meta_inclination": 51.6304,
        "meta_ra_of_asc_node": 70.8185,
        "meta_arg_of_pericenter": 333.5123,
        "meta_mean_anomaly": 26.5795,
        "meta_ephemeris_type": 0,
        "meta_classification_type": "U",
        "meta_norad_cat_id": 65943,
        "meta_element_set_no": 999,
        "meta_rev_at_epoch": 1200,
        "meta_bstar": 0.0007949653,
        "meta_mean_motion_dot": 0.00069021,
        "meta_mean_motion_ddot": 0,
        "tle_line1": "1 65943U 98067XQ  25360.48238675  .00069021  00000+0  79497-3 0  9992",
        "tle_line2": "2 65943  51.6304  70.8185 0001473 333.5123  26.5795 15.61326456 12008"
      },
      "geometry": {
        "type": "Point",
        "coordinates": [
          -55.68376408208648,
          -47.596410470428474
        ]
      }
    },
    {
      "type": "Feature",
      "properties": {
        "norad_id": 66052,
        "name": "HRC MONOBLOCK CAMERA",
        "group": "stations",
        "lat": -50.629778512190356,
        "lon": -8.602261096518953,
        "alt_km": 404.9943760319684,
        "timestamp": "2025-12-27T19:21:57.578363+00:00",
        "meta_object_name": "HRC MONOBLOCK CAMERA",
        "meta_object_id": "1998-067XR",
        "meta_epoch": "2025-12-27T07:22:24.496608",
        "meta_mean_motion": 15.55156889,
        "meta_eccentricity": 0.0001856,
        "meta_inclination": 51.6304,
        "meta_ra_of_asc_node": 68.8177,
        "meta_arg_of_pericenter": 258.0003,
        "meta_mean_anomaly": 102.078,
        "meta_ephemeris_type": 0,
        "meta_classification_type": "U",
        "meta_norad_cat_id": 66052,
        "meta_element_set_no": 999,
        "meta_rev_at_epoch": 1110,
        "meta_bstar": 0.00051894,
        "meta_mean_motion_dot": 0.00035345,
        "meta_mean_motion_ddot": 0,
        "tle_line1": "1 66052U 98067XR  25361.30722797  .00035345  00000+0  51894-3 0  9992",
        "tle_line2": "2 66052  51.6304  68.8177 0001856 258.0003 102.0780 15.55156889 11109"
      },
      "geometry": {
        "type": "Point",
        "coordinates": [
          -8.602261096518953,
          -50.629778512190356
        ]
      }
    }
  ]
}